{
  "type": "FeatureCollection",
  "features": [
    {
      "type": "Feature",
      "properties": {
        "norad_id": 38067,
        "name": "COSMOS 2251 DEB",
        "group": "cosmos-2251-debris",
        "lat": -69.20402640180507,
        "lon": 139.58086760571283,
        "alt_km": 742.7852402542312,
        "timestamp": "2025-12-14T18:52:55.901540+00:00",
        "meta_object_name": "COSMOS 2251 DEB",
        "meta_object_id": "1993-036BRZ",
        "meta_epoch": "2025-12-13T12:56:02.220576",
        "meta_mean_motion": 14.61132986,
        "meta_eccentricity": 0.00693335,
        "meta_inclination": 74.0176,
        "meta_ra_of_asc_node": 272.9737,
        "meta_arg_of_pericenter": 60.458,
        "meta_mean_anomaly": 115.2225,
        "meta_ephemeris_type": 0,
        "meta_classification_type": "U",
        "meta_norad_cat_id": 38067,
        "meta_element_set_no": 999,
        "meta_rev_at_epoch": 62567,
        "meta_bstar": 0.00062887252,
        "meta_mean_motion_dot": 3.171e-05,
        "meta_mean_motion_ddot": 0,
        "tle_line1": "1 38067U 93036BRZ 25347.53891459  .00003171  00000+0  62887-3 0  9995",
        "tle_line2": "2 38067  74.0176 272.9737 0069333  60.4580 115.2225 14.61132986625670"
      },
      "geometry": {
        "type": "Point",
        "coordinates": [
          139.58086760571283,
          -69.20402640180507
        ]
      }
    },
    {
      "type": "Feature",
      "properties": {
        "norad_id": 38068,
        "name": "COSMOS 2251 DEB",
        "group": "cosmos-2251-debris",
        "lat": -14.936182131680566,
        "lon": 128.87479580902854,
        "alt_km": 792.5138383854992,
        "timestamp": "2025-12-14T18:52:55.901550+00:00",
        "meta_object_name": "COSMOS 2251 DEB",
        "meta_object_id": "1993-036BSA",
        "meta_epoch": "2025-11-26T00:12:22.263264",
        "meta_mean_motion": 14.35960004,
        "meta_eccentricity": 0.00240903,
        "meta_inclination": 74.0219,
        "meta_ra_of_asc_node": 338.9788,
        "meta_arg_of_pericenter": 72.1007,
        "meta_mean_anomaly": 288.2769,
        "meta_ephemeris_type": 0,
        "meta_classification_type": "U",
        "meta_norad_cat_id": 38068,
        "meta_element_set_no": 999,
        "meta_rev_at_epoch": 66406,
        "meta_bstar": 0.00028750999,
        "meta_mean_motion_dot": 8.11e-06,
        "meta_mean_motion_ddot": 0,
        "tle_line1": "1 38068U 93036BSA 25330.00859101  .00000811  00000+0  28751-3 0  9998",
        "tle_line2": "2 38068  74.0219 338.9788 0024090  72.1007 288.2769 14.35960004664064"
      },
      "geometry": {
        "type": "Point",
        "coordinates": [
          128.87479580902854,
          -14.936182131680566
        ]
      }
    },
    {
      "type": "Feature",
      "properties": {
        "norad_id": 38197,
        "name": "COSMOS 2251 DEB",
        "group": "cosmos-2251-debris",
        "lat": 68.86547057451529,
        "lon": 124.8570387521,
        "alt_km": 692.5200419771709,
        "timestamp": "2025-12-14T18:52:55.901560+00:00",
        "meta_object_name": "COSMOS 2251 DEB",
        "meta_object_id": "1993-036BSM",
        "meta_epoch": "2025-12-13T17:58:16.097952",
        "meta_mean_motion": 14.74114846,
        "meta_eccentricity": 0.01265187,
        "meta_inclination": 73.9414,
        "meta_ra_of_asc_node": 355.0661,
        "meta_arg_of_pericenter": 232.413,
        "meta_mean_anomaly": 126.5502,
        "meta_ephemeris_type": 0,
        "meta_classification_type": "U",
        "meta_norad_cat_id": 38197,
        "meta_element_set_no": 999,
        "meta_rev_at_epoch": 85770,
        "meta_bstar": 0.0039457415,
        "meta_mean_motion_dot": 0.00029668,
        "meta_mean_motion_ddot": 0,
        "tle_line1": "1 38197U 93036BSM 25347.74879743  .00029668  00000+0  39457-2 0  9999",
        "tle_line2": "2 38197  73.9414 355.0661 0126518 232.4130 126.5502 14.74114846857700"
      },
      "geometry": {
        "type": "Point",
        "coordinates": [
          124.8570387521,
          68.86547057451529
        ]
      }
    },
    {
      "type": "Feature",
      "properties": {
        "norad_id": 38199,
        "name": "COSMOS 2251 DEB",
        "group": "cosmos-2251-debris",
        "lat": 9.873756896702458,
        "lon": -124.04456107665291,
        "alt_km": 1291.936385840594,
        "timestamp": "2025-12-14T18:52:55.901570+00:00",
        "meta_object_name": "COSMOS 2251 DEB",
        "meta_object_id": "1993-036BSP",
        "meta_epoch": "2025-12-13T20:56:14.984160",
        "meta_mean_motion": 13.6479563,
        "meta_eccentricity": 0.03696771,
        "meta_inclination": 73.9561,
        "meta_ra_of_asc_node": 60.3279,
        "meta_arg_of_pericenter": 346.5887,
        "meta_mean_anomaly": 12.5598,
        "meta_ephemeris_type": 0,
        "meta_classification_type": "U",
        "meta_norad_cat_id": 38199,
        "meta_element_set_no": 999,
        "meta_rev_at_epoch": 61037,
        "meta_bstar": 0.00062586039,
        "meta_mean_motion_dot": 7.81e-06,
        "meta_mean_motion_ddot": 0,
        "tle_line1": "1 38199U 93036BSP 25347.87239565  .00000781  00000+0  62586-3 0  9992",
        "tle_line2": "2 38199  73.9561  60.3279 0369677 346.5887  12.5598 13.64795630610370"
      },
      "geometry": {
        "type": "Point",
        "coordinates": [
          -124.04456107665291,
          9.873756896702458
        ]
      }
    },
    {
      "type": "Feature",
      "properties": {
        "norad_id": 38208,
        "name": "COSMOS 2251 DEB",
        "group": "cosmos-2251-debris",
        "lat": 50.24961133284468,
        "lon": -125.32856047456194,
        "alt_km": 610.5145132006801,
        "timestamp": "2025-12-14T18:52:55.901580+00:00",
        "meta_object_name": "COSMOS 2251 DEB",
        "meta_object_id": "1993-036BSY",
        "meta_epoch": "2025-12-13T17:06:55.631232",
        "meta_mean_motion": 14.83950363,
        "meta_eccentricity": 0.00020433,
        "meta_inclination": 74.0053,
        "meta_ra_of_asc_node": 76.977,
        "meta_arg_of_pericenter": 155.4201,
        "meta_mean_anomaly": 358.2431,
        "meta_ephemeris_type": 0,
        "meta_classification_type": "U",
        "meta_norad_cat_id": 38208,
        "meta_element_set_no": 999,
        "meta_rev_at_epoch": 71173,
        "meta_bstar": 0.0025143391,
        "meta_mean_motion_dot": 0.00020943,
        "meta_mean_motion_ddot": 0,
        "tle_line1": "1 38208U 93036BSY 25347.71314388  .00020943  00000+0  25143-2 0  9992",
        "tle_line2": "2 38208  74.0053  76.9770 0002043 155.4201 358.2431 14.83950363711732"
      },
      "geometry": {
        "type": "Point",
        "coordinates": [
          -125.32856047456194,
          50.24961133284468
        ]
      }
    },
    {
      "type": "Feature",
      "properties": {
        "norad_id": 38212,
        "name": "COSMOS 2251 DEB",
        "group": "cosmos-2251-debris",
        "lat": 28.866463347017707,
        "lon": 81.65489755654731,
        "alt_km": 655.23930499787,
        "timestamp": "2025-12-14T18:52:55.901590+00:00",
        "meta_object_name": "COSMOS 2251 DEB",
        "meta_object_id": "1993-036BTC",
        "meta_epoch": "2025-12-13T23:14:48.711840",
        "meta_mean_motion": 14.77697426,
        "meta_eccentricity": 0.00923484,
        "meta_inclination": 74.0527,
        "meta_ra_of_asc_node": 74.1891,
        "meta_arg_of_pericenter": 140.8526,
        "meta_mean_anomaly": 219.9379,
        "meta_ephemeris_type": 0,
        "meta_classification_type": "U",
        "meta_norad_cat_id": 38212,
        "meta_element_set_no": 999,
        "meta_rev_at_epoch": 81328,
        "meta_bstar": 0.00051158029,
        "meta_mean_motion_dot": 3.901e-05,
        "meta_mean_motion_ddot": 0,
        "tle_line1": "1 38212U 93036BTC 25347.96861935  .00003901  00000+0  51158-3 0  9990",
        "tle_line2": "2 38212  74.0527  74.1891 0092348 140.8526 219.9379 14.77697426813280"
      },
      "geometry": {
        "type": "Point",
        "coordinates": [
          81.65489755654731,
          28.866463347017707
        ]
      }
    },
    {
      "type": "Feature",
      "properties": {
        "norad_id": 38220,
        "name": "COSMOS 2251 DEB",
        "group": "cosmos-2251-debris",
        "lat": -62.40288108075248,
        "lon": 30.915882239168187,
        "alt_km": 596.1431780735365,
        "timestamp": "2025-12-14T18:52:55.901612+00:00",
        "meta_object_name": "COSMOS 2251 DEB",
        "meta_object_id": "1993-036BTL",
        "meta_epoch": "2025-12-11T22:01:48.758016",
        "meta_mean_motion": 14.92850575,
        "meta_eccentricity": 0.0004483,
        "meta_inclination": 74.014,
        "meta_ra_of_asc_node": 69.9473,
        "meta_arg_of_pericenter": 50.1596,
        "meta_mean_anomaly": 309.9981,
        "meta_ephemeris_type": 0,
        "meta_classification_type": "U",
        "meta_norad_cat_id": 38220,
        "meta_element_set_no": 999,
        "meta_rev_at_epoch": 71358,
        "meta_bstar": 0.0045219,
        "meta_mean_motion_dot": 0.00047133,
        "meta_mean_motion_ddot": 0,
        "tle_line1": "1 38220U 93036BTL 25345.91792544  .00047133  00000+0  45219-2 0  9996",
        "tle_line2": "2 38220  74.0140  69.9473 0004483  50.1596 309.9981 14.92850575713585"
      },
      "geometry": {
        "type": "Point",
        "coordinates": [
          30.915882239168187,
          -62.40288108075248
        ]
      }
    }
  ]
}